[Satellite]
VERSION=1.1
NAME=CYGFM06
NICKNAME=CYGFM06
TLE1=1 41889U 16078F   18020.63650621  .00000397  00000-0  22839-4 0  9999
TLE2=2 41889  34.9584 114.1313 0013467 122.6147 237.5866 15.14497628 60823
